station,valid,lon,lat,tmpf,dwpf,relh,drct,sknt,p01i,alti,mslp,vsby,gust,skyc1,skyc2,skyc3,skyc4,skyl1,skyl2,skyl3,skyl4,wxcodes,ice_accretion_1hr,ice_accretion_3hr,ice_accretion_6hr,peak_wind_gust,peak_wind_drct,peak_wind_time,feel,metar
LEBZ,2008-12-19 11:45,-6.8292,38.8833,37.40,37.40,100.00,80.00,5.00,null,30.42,null,0.68,null,OVC,null,null,null,200.00,null,null,null,VCFG,null,null,null,null,null,null,32.81,SPECI LEBZ 191145Z 08005KT 1100 R31/1000 VCFG OVC002 03/03 Q1030
LEBZ,2008-12-19 11:50,-6.8292,38.8833,37.40,37.40,100.00,80.00,4.00,null,30.42,null,0.50,null,OVC,null,null,null,200.00,null,null,null,FG,null,null,null,null,null,null,33.73,SPECI LEBZ 191150Z 08004KT 0800 R31/1000 FG OVC002 03/03 Q1030
LEBZ,2008-12-19 12:25,-6.8292,38.8833,39.20,37.40,93.19,90.00,5.00,null,30.42,null,0.75,null,OVC,null,null,null,200.00,null,null,null,BCFG,null,null,null,null,null,null,34.95,SPECI LEBZ 191225Z 09005KT 1200 R31/2000 BCFG OVC002 04/03 Q1030
LEBZ,2008-12-19 12:40,-6.8292,38.8833,39.20,39.20,100.00,80.00,5.00,null,30.42,null,1.24,null,OVC,null,null,null,200.00,null,null,null,BR,null,null,null,null,null,null,34.95,SPECI LEBZ 191240Z 08005KT 2000 BR OVC002 04/04 Q1030
LEBZ,2008-12-19 13:30,-6.8292,38.8833,44.60,42.80,93.35,80.00,3.00,null,30.39,null,3.11,null,SCT,null,null,null,600.00,null,null,null,BR,null,null,null,null,null,null,43.09,SPECI LEBZ 191330Z 08003KT 5000 BR SCT006 07/06 Q1029
LEBZ,2008-12-20 07:30,-6.8292,38.8833,28.40,28.40,100.00,0.00,0.00,null,60.00,null,0.12,null,NSC,null,null,null,null,null,null,null,FG,null,null,null,null,null,null,28.40,SPECI LEBZ 200730Z 00000KT 0200 R31/0300 FG NSC M02/M02 Q2032
LEBZ,2008-12-20 09:20,-6.8292,38.8833,35.60,33.80,93.08,0.00,0.00,null,30.50,null,1.86,null,NSC,null,null,null,null,null,null,null,BR,null,null,null,null,null,null,35.60,SPECI LEBZ 200920Z 00000KT 3000 BR NSC 02/01 Q1033
LEBZ,2008-12-21 06:47,-6.8292,38.8833,30.20,30.20,100.00,0.00,0.00,null,30.45,null,0.62,null,NSC,null,null,null,null,null,null,null,BCFG,null,null,null,null,null,null,30.20,SPECI LEBZ 210647Z 00000KT 1000 R31/1200 BCFG NSC M01/M01 Q1031
LEBZ,2008-12-23 06:30,-6.8292,38.8833,30.20,30.20,100.00,150.00,1.00,null,30.30,null,1.24,null,NSC,null,null,null,null,null,null,null,BR,null,null,null,null,null,null,30.20,SPECI LEBZ 230630Z 15001KT 2000 BR NSC M01/M01 Q1026
LEBZ,2008-12-23 06:46,-6.8292,38.8833,26.60,26.60,100.00,80.00,2.00,null,30.30,null,0.37,null,NSC,null,null,null,null,null,null,null,BCFG,null,null,null,null,null,null,26.60,SPECI LEBZ 230646Z 08002KT 0600 R31/0500 BCFG NSC M03/M03 Q1026
LEBZ,2008-12-23 08:01,-6.8292,38.8833,30.20,30.20,100.00,90.00,3.00,null,30.30,null,0.12,null,VV ,null,null,null,100.00,null,null,null,FG,null,null,null,null,null,null,26.63,SPECI LEBZ 230801Z 09003KT 0200 R31/0300 FG VV001 M01/M01 Q1026
LEBZ,2008-12-23 10:30,-6.8292,38.8833,42.80,35.60,75.50,90.00,1.00,null,30.33,null,6.21,null,null,null,null,null,null,null,null,null,null,null,null,null,null,null,null,42.80,SPECI LEBZ 231030Z 09001KT CAVOK 06/02 Q1027
LEBZ,2008-12-24 07:05,-6.8292,38.8833,32.00,32.00,100.00,0.00,0.00,null,30.27,null,0.50,null,NSC,null,null,null,null,null,null,null,BCFG,null,null,null,null,null,null,32.00,SPECI LEBZ 240705Z 00000KT 0800 R31/0900 BCFG NSC M00/M00 Q1025
LEBZ,2008-12-24 07:10,-6.8292,38.8833,32.00,32.00,100.00,0.00,0.00,null,30.27,null,0.37,null,NSC,null,null,null,null,null,null,null,BCFG,null,null,null,null,null,null,32.00,SPECI LEBZ 240710Z 00000KT 0600 R31/0600 BCFG NSC M00/M00 Q1025
LEBZ,2008-12-24 08:39,-6.8292,38.8833,32.00,32.00,100.00,60.00,2.00,null,30.30,null,1.24,null,NSC,null,null,null,null,null,null,null,BCFG,null,null,null,null,null,null,32.00,SPECI LEBZ 240839Z 06002KT 2000 BCFG NSC 00/M00 Q1026
LEBZ,2008-12-26 06:40,-6.8292,38.8833,26.60,24.80,92.80,270.00,1.00,null,29.94,null,0.99,null,null,null,null,null,null,null,null,null,BR,null,null,null,null,null,null,26.60,SPECI LEBZ 260640Z 27001KT 1600 BR M03/M04 Q1014
LEBZ,2008-12-26 11:15,-6.8292,38.8833,39.20,35.60,86.79,300.00,9.00,null,29.97,null,3.11,null,SCT,null,null,null,500.00,null,null,null,BR,null,null,null,null,null,null,32.47,SPECI LEBZ 261115Z 30009KT 5000 BR SCT005 04/02 Q1015
LEBZ,2008-12-26 19:30,-6.8292,38.8833,46.40,37.40,70.68,230.00,7.00,null,29.80,null,6.21,null,SCT,null,null,null,3500.00,null,null,null,null,null,null,null,null,null,null,42.33,SPECI LEBZ 261930Z 23007KT 9999 SCT035 08/03 Q1009
LEBZ,2008-12-30 07:35,-6.8292,38.8833,44.60,44.60,100.00,100.00,8.00,null,30.18,null,3.11,null,NSC,null,null,null,null,null,null,null,null,null,null,null,null,null,null,39.63,SPECI LEBZ 300735Z 10008KT 5000 NSC 07/07 Q1022
LEBZ,2008-12-30 07:50,-6.8292,38.8833,44.60,44.60,100.00,100.00,9.00,null,30.18,null,0.50,null,VV ,null,null,null,100.00,null,null,null,FG,null,null,null,null,null,null,39.18,SPECI LEBZ 300750Z 10009KT 0800 R31/1300 FG VV001 07/07 Q1022
LEBZ,2008-12-30 07:53,-6.8292,38.8833,44.60,44.60,100.00,100.00,9.00,null,30.18,null,0.12,null,VV ,null,null,null,100.00,null,null,null,FG,null,null,null,null,null,null,39.18,SPECI LEBZ 300753Z 10009KT 0200 R31/1300 FG VV001 07/07 Q1022
LEBZ,2008-12-30 08:40,-6.8292,38.8833,46.40,44.60,93.40,100.00,5.00,null,30.18,null,0.56,null,SCT,null,null,null,200.00,null,null,null,FG,null,null,null,null,null,null,43.50,SPECI LEBZ 300840Z 10005KT 0900 R31/1500 FG SCT002 08/07 Q1022
LEBZ,2008-12-30 08:45,-6.8292,38.8833,46.40,44.60,93.40,100.00,5.00,null,30.18,null,0.99,null,SCT,null,null,null,200.00,null,null,null,BR,null,null,null,null,null,null,43.50,SPECI LEBZ 300845Z 10005KT 1600 BR SCT002 08/07 Q1022
LEBZ,2008-12-30 09:15,-6.8292,38.8833,48.20,46.40,93.45,100.00,8.00,null,30.18,null,4.35,null,NSC,null,null,null,null,null,null,null,null,null,null,null,null,null,null,44.07,SPECI LEBZ 300915Z 10008KT 7000 NSC 09/08 Q1022
LEBZ,2009-01-02 08:20,-6.8292,38.8833,53.60,51.80,93.60,null,1.00,null,30.09,null,3.11,null,BKN,null,null,null,500.00,null,null,null,BR,null,null,null,null,null,null,53.60,SPECI LEBZ 020820Z VRB01KT 5000 BR BKN005 12/11 Q1019
LEBZ,2009-01-02 08:45,-6.8292,38.8833,53.60,51.80,93.60,null,2.00,null,30.09,null,2.17,null,OVC,null,null,null,500.00,null,null,null,BR,null,null,null,null,null,null,53.60,SPECI LEBZ 020845Z VRB02KT 3500 BR OVC005 12/11 Q1019
LEBZ,2009-01-02 18:45,-6.8292,38.8833,55.40,53.60,93.65,null,1.00,null,30.03,null,2.49,null,SCT,BKN,null,null,1400.00,3000.00,null,null,SHRA,null,null,null,null,null,null,55.40,SPECI LEBZ 021845Z VRB01KT 4000 SHRA SCT014 BKN030 13/12 Q1017
LEBZ,2009-01-03 10:45,-6.8292,38.8833,53.60,50.00,87.56,250.00,6.00,null,30.00,null,3.73,null,SCT,BKN,null,null,4000.00,6000.00,null,null,-RA,null,null,null,null,null,null,53.60,SPECI LEBZ 031045Z 25006KT 6000 2500W -RA SCT040 BKN060 12/10 Q1016
LEBZ,2009-01-03 11:18,-6.8292,38.8833,53.60,50.00,87.56,260.00,7.00,null,29.97,null,3.11,null,SCT,SCT,null,null,1000.00,2000.00,null,null,null,null,null,null,null,null,null,53.60,SPECI LEBZ 031118Z 26007KT 5000 SCT010 SCT020TCU 12/10 Q1015
LEBZ,2009-01-03 11:40,-6.8292,38.8833,55.40,50.00,81.99,270.00,5.00,null,29.97,null,3.11,null,SCT,SCT,null,null,1000.00,2000.00,null,null,DZ,null,null,null,null,null,null,55.40,SPECI LEBZ 031140Z 27005KT 5000 1500W DZ SCT010 SCT020TCU 13/10 Q1015
LEBZ,2009-01-03 12:15,-6.8292,38.8833,51.80,50.00,93.55,230.00,9.00,null,29.97,null,0.62,null,OVC,null,null,null,2000.00,null,null,null,+SHRA,null,null,null,null,null,null,51.80,SPECI LEBZ 031215Z 23009KT 1000 +SHRA OVC020TCU 11/10 Q1015
LEBZ,2009-01-03 12:32,-6.8292,38.8833,48.20,46.40,93.45,260.00,8.00,null,29.97,null,1.24,null,SCT,BKN,null,null,2000.00,3000.00,null,null,-RA,null,null,null,null,null,null,44.07,SPECI LEBZ 031232Z 26008KT 2000 -RA SCT020TCU BKN030 09/08 Q1015
LEBZ,2009-01-03 13:40,-6.8292,38.8833,50.00,48.20,93.50,270.00,5.00,null,29.94,null,3.73,null,SCT,SCT,null,null,3000.00,5000.00,null,null,null,null,null,null,null,null,null,47.77,SPECI LEBZ 031340Z 27005KT 6000 SCT030TCU SCT050 10/09 Q1014 RERA
LEBZ,2009-01-04 07:43,-6.8292,38.8833,46.40,44.60,93.40,290.00,7.00,null,30.06,null,1.86,null,OVC,null,null,null,400.00,null,null,null,BR,null,null,null,null,null,null,42.33,SPECI LEBZ 040743Z 29007KT 3000 BR OVC004 08/07 Q1018
LEBZ,2009-01-13 07:25,-6.8292,38.8833,39.20,37.40,93.19,100.00,3.00,null,30.18,null,0.99,null,BKN,null,null,null,3500.00,null,null,null,RA,null,null,null,null,null,null,36.92,SPECI LEBZ 130725Z 10003KT 1600 RA BKN035 04/03 Q1022
LEBZ,2009-01-13 08:30,-6.8292,38.8833,41.00,41.00,100.00,120.00,3.00,null,30.15,null,0.93,null,OVC,null,null,null,1500.00,null,null,null,BR RA,null,null,null,null,null,null,38.98,SPECI LEBZ 130830Z 12003KT 1500 BR RA OVC015 05/05 Q1021
LEBZ,2009-01-13 11:30,-6.8292,38.8833,46.40,44.60,93.40,320.00,3.00,null,30.15,null,1.24,null,BKN,OVC,null,null,600.00,2000.00,null,null,DZ BR,null,null,null,null,null,null,45.15,SPECI LEBZ 131130Z 32003KT 2000 DZ BR BKN006 OVC020 08/07 Q1021
LEBZ,2009-01-13 12:15,-6.8292,38.8833,48.20,46.40,93.45,310.00,6.00,null,30.15,null,3.11,null,BKN,BKN,null,null,700.00,2000.00,null,null,BR,null,null,null,null,null,null,45.04,SPECI LEBZ 131215Z 31006KT 5000 BR BKN007 BKN020 09/08 Q1021
LEBZ,2009-01-14 11:25,-6.8292,38.8833,37.40,37.40,100.00,null,1.00,null,30.27,null,0.50,null,VV ,null,null,null,200.00,null,null,null,FG,null,null,null,null,null,null,37.40,SPECI LEBZ 141125Z VRB01KT 0800 R31/1600 FG VV002 03/03 Q1025
LEBZ,2009-01-15 09:43,-6.8292,38.8833,44.60,39.20,81.20,100.00,8.00,null,29.97,null,1.24,null,BKN,OVC,null,null,2100.00,4000.00,null,null,BR,null,null,null,null,null,null,39.63,SPECI LEBZ 150943Z 10008KT 2000 BR BKN021 OVC040 07/04 Q1015
LEBZ,2009-01-18 06:20,-6.8292,38.8833,35.60,35.60,100.00,130.00,3.00,null,30.27,null,3.11,null,SCT,null,null,null,6000.00,null,null,null,null,null,null,null,null,null,null,32.80,SPECI LEBZ 180620Z 13003KT 5000 SCT060 02/02 Q1025
LEBZ,2009-01-18 07:30,-6.8292,38.8833,37.40,35.60,93.14,0.00,0.00,null,30.27,null,1.86,null,BKN,null,null,null,1200.00,null,null,null,BR,null,null,null,null,null,null,37.40,SPECI LEBZ 180730Z 00000KT 3000 BR BKN012 03/02 Q1025
LEBZ,2009-01-19 10:18,-6.8292,38.8833,57.20,51.80,82.12,240.00,15.00,null,29.97,null,3.11,null,SCT,SCT,null,null,1200.00,2500.00,null,null,null,null,null,null,null,null,null,57.20,SPECI LEBZ 191018Z 24015KT 5000 SCT012 SCT025 14/11 Q1015
LEBZ,2009-01-19 10:22,-6.8292,38.8833,57.20,51.80,82.12,240.00,15.00,null,29.97,null,1.86,null,SCT,BKN,null,null,1000.00,2500.00,null,null,DZ,null,null,null,null,null,null,57.20,SPECI LEBZ 191022Z 24015KT 3000 DZ SCT010 BKN025 14/11 Q1015
LEBZ,2009-01-19 11:05,-6.8292,38.8833,55.40,51.80,87.65,240.00,16.00,null,29.97,null,0.93,null,SCT,BKN,null,null,1000.00,2000.00,null,null,DZ,null,null,null,null,null,null,55.40,SPECI LEBZ 191105Z 24016KT 1500 DZ SCT010 BKN020 13/11 Q1015
LEBZ,2009-01-19 11:17,-6.8292,38.8833,55.40,53.60,93.65,230.00,16.00,null,29.94,null,3.73,null,SCT,BKN,null,null,1500.00,3000.00,null,null,DZ,null,null,null,null,null,null,55.40,SPECI LEBZ 191117Z 23016KT 6000 2500W DZ SCT015 BKN030 13/12 Q1014
LEBZ,2009-01-19 11:35,-6.8292,38.8833,57.20,51.80,82.12,230.00,16.00,null,29.94,null,1.55,null,SCT,BKN,null,null,1000.00,2000.00,null,null,DZ,null,null,null,null,null,null,57.20,SPECI LEBZ 191135Z 23016KT 2500 DZ SCT010 BKN020 14/11 Q1014
LEBZ,2009-01-19 12:30,-6.8292,38.8833,57.20,53.60,87.74,230.00,19.00,null,29.88,null,2.49,29.00,SCT,SCT,null,null,1200.00,1800.00,null,null,DZ,null,null,null,null,null,null,57.20,SPECI LEBZ 191230Z 23019G29KT 4000 DZ SCT012 SCT018 14/12 Q1012
LEBZ,2009-01-19 13:10,-6.8292,38.8833,57.20,53.60,87.74,230.00,18.00,null,29.85,null,1.24,28.00,SCT,SCT,null,null,1000.00,1500.00,null,null,DZ,null,null,null,null,null,null,57.20,SPECI LEBZ 191310Z 23018G28KT 2000 DZ SCT010 SCT015 14/12 Q1011
LEBZ,2009-01-19 13:23,-6.8292,38.8833,57.20,53.60,87.74,240.00,16.00,null,29.85,null,0.87,27.00,SCT,SCT,null,null,1000.00,1500.00,null,null,DZ,null,null,null,null,null,null,57.20,SPECI LEBZ 191323Z 24016G27KT 1400 DZ SCT010 SCT015 14/12 Q1011
LEBZ,2009-01-19 13:50,-6.8292,38.8833,55.40,53.60,93.65,240.00,15.00,null,29.85,null,0.62,null,SCT,BKN,null,null,1000.00,1500.00,null,null,DZ,null,null,null,null,null,null,55.40,SPECI LEBZ 191350Z 24015KT 1000 DZ SCT010 BKN015 13/12 Q1011
LEBZ,2009-01-19 14:05,-6.8292,38.8833,53.60,51.80,93.60,280.00,19.00,null,29.85,null,1.55,null,SCT,BKN,null,null,1000.00,2500.00,null,null,DZ,null,null,null,null,null,null,53.60,SPECI LEBZ 191405Z 28019KT 2500 DZ SCT010 BKN025 12/11 Q1011
LEBZ,2009-01-19 14:15,-6.8292,38.8833,53.60,51.80,93.60,280.00,19.00,null,29.85,null,0.62,null,SCT,BKN,null,null,1000.00,2500.00,null,null,DZ,null,null,null,null,null,null,53.60,SPECI LEBZ 191415Z 28019KT 1000 DZ SCT010 BKN025 12/11 Q1011
LEBZ,2009-01-19 14:22,-6.8292,38.8833,53.60,51.80,93.60,290.00,20.00,null,29.85,null,6.21,null,SCT,BKN,null,null,1500.00,3000.00,null,null,DZ,null,null,null,null,null,null,53.60,SPECI LEBZ 191422Z 29020KT 9999 DZ SCT015 BKN030 12/11 Q1011
LEBZ,2009-01-22 08:45,-6.8292,38.8833,50.00,48.20,93.50,230.00,13.00,null,30.06,null,1.86,null,BKN,null,null,null,1400.00,null,null,null,-RA,null,null,null,null,null,null,44.63,SPECI LEBZ 220845Z 23013KT 3000 -RA BKN014 10/09 Q1018
LEBZ,2009-01-22 09:17,-6.8292,38.8833,51.80,48.20,87.47,220.00,14.00,null,30.06,null,3.73,null,BKN,null,null,null,1100.00,null,null,null,-DZ,null,null,null,null,null,null,51.80,SPECI LEBZ 220917Z 22014KT 6000 -DZ BKN011 11/09 Q1018
LEBZ,2009-01-22 10:35,-6.8292,38.8833,53.60,50.00,87.56,230.00,18.00,null,30.03,null,1.24,28.00,BKN,null,null,null,1500.00,null,null,null,RA,null,null,null,null,null,null,53.60,SPECI LEBZ 221035Z 23018G28KT 2000 RA BKN015 12/10 Q1017
LEBZ,2009-01-22 10:41,-6.8292,38.8833,53.60,50.00,87.56,230.00,18.00,null,30.03,null,3.73,null,BKN,null,null,null,1500.00,null,null,null,-DZ,null,null,null,null,null,null,53.60,SPECI LEBZ 221041Z 23018KT 6000 -DZ BKN015 12/10 Q1017
LEBZ,2009-01-22 11:03,-6.8292,38.8833,53.60,50.00,87.56,230.00,18.00,null,30.03,null,1.24,null,BKN,null,null,null,1000.00,null,null,null,-RA,null,null,null,null,null,null,53.60,SPECI LEBZ 221103Z 23018KT 2000 -RA BKN010 12/10 Q1017
LEBZ,2009-01-22 11:24,-6.8292,38.8833,53.60,50.00,87.56,230.00,18.00,null,30.03,null,0.93,29.00,BKN,null,null,null,1000.00,null,null,null,-RA,null,null,null,null,null,null,53.60,SPECI LEBZ 221124Z 23018G29KT 1500 -RA BKN010 12/10 Q1017
LEBZ,2009-01-22 11:38,-6.8292,38.8833,51.80,50.00,93.55,230.00,18.00,null,30.03,null,0.37,null,BKN,null,null,null,1000.00,null,null,null,RA,null,null,null,null,null,null,51.80,SPECI LEBZ 221138Z 23018KT 0600 RA BKN010 11/10 Q1017
LEBZ,2009-01-22 11:44,-6.8292,38.8833,51.80,51.80,100.00,230.00,18.00,null,30.03,null,0.93,null,SCT,BKN,null,null,3000.00,4500.00,null,null,RA,null,null,null,null,null,null,51.80,SPECI LEBZ 221144Z 23018KT 1500 RA SCT030 BKN045 11/11 Q1017
LEBZ,2009-01-22 12:20,-6.8292,38.8833,53.60,51.80,93.60,230.00,18.00,null,30.00,null,1.86,28.00,BKN,null,null,null,3000.00,null,null,null,DZ,null,null,null,null,null,null,53.60,SPECI LEBZ 221220Z 23018G28KT 3000 DZ BKN030 12/11 Q1016
LEBZ,2009-01-22 13:30,-6.8292,38.8833,57.20,53.60,87.74,230.00,17.00,null,29.97,null,6.21,null,FEW,BKN,null,null,1000.00,2500.00,null,null,null,null,null,null,null,null,null,57.20,SPECI LEBZ 221330Z 23017KT 9999 FEW010 BKN025 14/12 Q1015 RERA
LEBZ,2009-01-22 14:28,-6.8292,38.8833,57.20,53.60,87.74,240.00,15.00,null,29.97,null,2.49,null,BKN,null,null,null,1000.00,null,null,null,null,null,null,null,null,null,null,57.20,SPECI LEBZ 221428Z 24015KT 4000 BKN010 14/12 Q1015
LEBZ,2009-01-22 14:40,-6.8292,38.8833,57.20,55.40,93.69,240.00,14.00,null,29.97,null,0.93,null,OVC,null,null,null,700.00,null,null,null,DZ,null,null,null,null,null,null,57.20,SPECI LEBZ 221440Z 24014KT 1500 DZ OVC007 14/13 Q1015
LEBZ,2009-01-22 15:48,-6.8292,38.8833,57.20,55.40,93.69,240.00,11.00,null,29.97,null,4.97,null,SCT,OVC,null,null,800.00,1700.00,null,null,null,null,null,null,null,null,null,57.20,SPECI LEBZ 221548Z 24011KT 8000 SCT008 OVC017 14/13 Q1015
LEBZ,2009-01-22 16:05,-6.8292,38.8833,57.20,55.40,93.69,250.00,13.00,null,29.97,null,0.99,null,OVC,null,null,null,1800.00,null,null,null,null,null,null,null,null,null,null,57.20,SPECI LEBZ 221605Z 25013KT 1600 OVC018 14/13 Q1015
LEBZ,2009-01-22 16:38,-6.8292,38.8833,57.20,57.20,100.00,240.00,13.00,null,29.97,null,3.11,null,OVC,null,null,null,1600.00,null,null,null,null,null,null,null,null,null,null,57.20,SPECI LEBZ 221638Z 24013KT 5000 OVC016 14/14 Q1015
LEBZ,2009-01-23 08:35,-6.8292,38.8833,57.20,55.40,93.69,250.00,15.00,null,30.00,null,0.93,null,OVC,null,null,null,900.00,null,null,null,DZ BR,null,null,null,null,null,null,57.20,SPECI LEBZ 230835Z 25015KT 1500 DZ BR OVC009 14/13 Q1016
LEBZ,2009-01-23 09:00,-6.8292,38.8833,57.20,55.40,93.69,250.00,15.00,null,30.00,null,6.21,null,SCT,BKN,null,null,600.00,3000.00,null,null,null,null,null,null,null,null,null,57.20,SPECI LEBZ 230900Z 25015KT 9999 SCT006 BKN030 14/13 Q1016
LEBZ,2009-01-23 10:10,-6.8292,38.8833,57.20,55.40,93.69,250.00,18.00,null,30.00,null,1.24,null,OVC,null,null,null,2500.00,null,null,null,DZ,null,null,null,null,null,null,57.20,SPECI LEBZ 231010Z 25018KT 2000 DZ OVC025 14/13 Q1016
LEBZ,2009-01-25 07:40,-6.8292,38.8833,50.00,46.40,87.37,230.00,17.00,null,29.68,null,3.11,null,FEW,BKN,null,null,4500.00,5000.00,null,null,RA,null,null,null,null,null,null,43.66,SPECI LEBZ 250740Z 23017KT 5000 RA FEW045 BKN050 10/08 Q1005
LEBZ,2009-01-25 08:45,-6.8292,38.8833,50.00,48.20,93.50,250.00,17.00,null,29.97,null,3.73,null,SCT,BKN,null,null,2500.00,4000.00,null,null,DZ,null,null,null,null,null,null,43.66,SPECI LEBZ 250845Z 25017KT 6000 DZ SCT025 BKN040 10/09 Q1015
LEBZ,2009-01-25 09:10,-6.8292,38.8833,50.00,48.20,93.50,260.00,17.00,null,29.68,null,3.73,null,SCT,BKN,null,null,1500.00,2200.00,null,null,-RA,null,null,null,null,null,null,43.66,SPECI LEBZ 250910Z 26017KT 6000 -RA SCT015 BKN022 10/09 Q1005
LEBZ,2009-01-25 09:37,-6.8292,38.8833,48.20,42.80,81.47,290.00,19.00,null,29.71,null,6.21,29.00,SCT,BKN,null,null,2500.00,4500.00,null,null,-DZ,null,null,null,null,null,null,40.86,SPECI LEBZ 250937Z 29019G29KT 9999 -DZ SCT025 BKN045 09/06 Q1006
LEBZ,2009-01-25 11:10,-6.8292,38.8833,48.20,39.20,70.88,280.00,17.00,null,29.74,null,3.73,46.00,SCT,SCT,null,null,2000.00,3000.00,null,null,null,null,null,null,null,null,null,41.30,SPECI LEBZ 251110Z 28017G46KT 6000 SCT020 SCT030 09/04 Q1007
LEBZ,2009-01-25 11:11,-6.8292,38.8833,48.20,39.20,70.88,280.00,31.00,null,29.74,null,3.73,49.00,SCT,SCT,null,null,2000.00,3000.00,null,null,null,null,null,null,null,null,null,38.84,SPECI LEBZ 251111Z 28031G49KT 6000 SCT020 SCT030 09/04 Q1007
LEBZ,2009-01-25 11:15,-6.8292,38.8833,44.60,35.60,70.48,310.00,28.00,null,29.77,null,3.73,null,SCT,SCT,null,null,2000.00,3000.00,null,null,RA,null,null,null,null,null,null,34.35,SPECI LEBZ 251115Z 31028KT 6000 RA SCT020 SCT030 07/02 Q1008
LEBZ,2009-01-25 11:33,-6.8292,38.8833,44.60,37.40,75.67,300.00,19.00,null,29.74,null,3.73,29.00,SCT,SCT,null,null,2000.00,3000.00,null,null,null,null,null,null,null,null,null,36.10,SPECI LEBZ 251133Z 30019G29KT 6000 SCT020TCU SCT030 07/03 Q1007 RERA
LEBZ,2009-01-25 12:49,-6.8292,38.8833,48.20,35.60,61.52,300.00,23.00,null,29.74,null,2.49,40.00,SCT,SCT,null,null,2000.00,3500.00,null,null,RA,null,null,null,null,null,null,40.09,SPECI LEBZ 251249Z 30023G40KT 4000 RA SCT020TCU SCT035 09/02 Q1007
LEBZ,2009-01-25 16:42,-6.8292,38.8833,48.20,32.00,53.27,290.00,22.00,null,29.77,null,3.73,37.00,SCT,SCT,null,null,3000.00,4500.00,null,null,null,null,null,null,null,null,null,40.27,SPECI LEBZ 251642Z 29022G37KT 6000 SCT030TCU SCT045 09/M00 Q1008
LEBZ,2009-01-25 19:20,-6.8292,38.8833,44.60,35.60,70.48,280.00,15.00,null,29.80,null,3.11,30.00,SCT,SCT,null,null,2000.00,3000.00,null,null,SHRA,null,null,null,null,null,null,37.11,SPECI LEBZ 251920Z 28015G30KT 5000 SHRA SCT020TCU SCT030 07/02 Q1009
LEBZ,2009-01-25 19:42,-6.8292,38.8833,41.00,35.60,80.93,290.00,20.00,null,29.83,null,3.73,null,SCT,SCT,null,null,2000.00,3000.00,null,null,DZ,null,null,null,null,null,null,31.09,SPECI LEBZ 251942Z 29020KT 6000 DZ SCT020TCU SCT030 05/02 Q1010
LEBZ,2009-01-26 05:12,-6.8292,38.8833,41.00,37.40,86.89,290.00,16.00,null,29.91,null,6.21,null,FEW,SCT,BKN,null,1500.00,2500.00,5000.00,null,null,null,null,null,null,null,null,32.15,SPECI LEBZ 260512Z 29016KT 9999 FEW015 SCT025 BKN050 05/03 Q1013
LEBZ,2009-01-28 10:05,-6.8292,38.8833,53.60,50.00,87.56,250.00,12.00,null,30.18,null,2.49,null,SCT,BKN,null,null,1500.00,3000.00,null,null,DZ,null,null,null,null,null,null,53.60,SPECI LEBZ 281005Z 25012KT 4000 DZ SCT015 BKN030 12/10 Q1022
LEBZ,2009-01-28 11:40,-6.8292,38.8833,57.20,50.00,76.82,250.00,13.00,null,30.18,null,6.21,null,SCT,BKN,null,null,2000.00,3500.00,null,null,null,null,null,null,null,null,null,57.20,SPECI LEBZ 281140Z 25013KT 9999 SCT020 BKN035 14/10 Q1022
LEBZ,2009-01-28 12:40,-6.8292,38.8833,57.20,50.00,76.82,240.00,15.00,null,30.15,null,1.86,null,BKN,null,null,null,1600.00,null,null,null,DZ,null,null,null,null,null,null,57.20,SPECI LEBZ 281240Z 24015KT 3000 DZ BKN016 14/10 Q1021
LEBZ,2009-01-29 07:30,-6.8292,38.8833,53.60,51.80,93.60,220.00,7.00,null,30.09,null,1.24,null,SCT,OVC,null,null,700.00,2000.00,null,null,BR DZ,null,null,null,null,null,null,53.60,SPECI LEBZ 290730Z 22007KT 2000 BR DZ SCT007 OVC020 12/11 Q1019
LEBZ,2009-01-29 08:45,-6.8292,38.8833,53.60,53.60,100.00,230.00,7.00,null,30.09,null,1.24,null,BKN,null,null,null,1000.00,null,null,null,BR DZ,null,null,null,null,null,null,53.60,SPECI LEBZ 290845Z 23007KT 2000 BR DZ BKN010 12/12 Q1019 RERA
LEBZ,2009-01-29 10:38,-6.8292,38.8833,57.20,53.60,87.74,230.00,8.00,null,30.12,null,6.21,null,BKN,null,null,null,1000.00,null,null,null,null,null,null,null,null,null,null,57.20,SPECI LEBZ 291038Z 23008KT 9999 BKN010 14/12 Q1020
LEBZ,2009-01-30 19:10,-6.8292,38.8833,55.40,44.60,66.91,270.00,13.00,null,29.62,null,2.49,null,BKN,null,null,null,3500.00,null,null,null,+RA,null,null,null,null,null,null,55.40,SPECI LEBZ 301910Z 27013KT 4000 +RA BKN035 13/07 Q1003
LEBZ,2009-02-01 05:45,-6.8292,38.8833,44.60,42.80,93.35,270.00,12.00,null,29.26,null,1.86,null,SCT,BKN,null,null,1500.00,2000.00,null,null,+RA,null,null,null,null,null,null,38.04,SPECI LEBZ 010545Z 27012KT 3000 +RA SCT015 BKN020 07/06 Q0991
LEBZ,2009-02-01 10:13,-6.8292,38.8833,50.00,44.60,81.61,80.00,9.00,null,29.18,null,1.86,null,OVC,null,null,null,5000.00,null,null,null,null,null,null,null,null,null,null,45.90,SPECI LEBZ 011013Z 08009KT 3000 OVC050 10/07 Q0988
LEBZ,2009-02-01 12:36,-6.8292,38.8833,51.80,44.60,76.34,200.00,7.00,null,29.12,null,1.86,null,VV ,null,null,null,3500.00,null,null,null,RA,null,null,null,null,null,null,51.80,SPECI LEBZ 011236Z 20007KT 3000 RA VV035 11/07 Q0986
LEBZ,2009-02-01 18:50,-6.8292,38.8833,44.60,44.60,100.00,180.00,3.00,null,29.09,null,3.11,null,VV ,null,null,null,2000.00,null,null,null,RA,null,null,null,null,null,null,43.09,SPECI LEBZ 011850Z 18003KT 5000 RA VV020 07/07 Q0985
LEBZ,2009-02-02 15:20,-6.8292,38.8833,51.80,44.60,76.34,280.00,4.00,null,29.32,null,1.24,null,BKN,BKN,null,null,3300.00,4500.00,null,null,RA,null,null,null,null,null,null,51.80,SPECI LEBZ 021520Z 28004KT 2000 RA BKN033 BKN045 11/07 Q0993
LEBZ,2009-02-04 09:28,-6.8292,38.8833,53.60,44.60,71.45,220.00,16.00,null,29.47,null,4.35,26.00,SCT,BKN,null,null,2500.00,6000.00,null,null,null,null,null,null,null,null,null,53.60,SPECI LEBZ 040928Z 22016G26KT 7000 SCT025 BKN060 12/07 Q0998
LEBZ,2009-02-04 09:39,-6.8292,38.8833,51.80,42.80,71.26,220.00,20.00,null,29.47,null,3.11,32.00,SCT,BKN,null,null,2500.00,5000.00,null,null,RA,null,null,null,null,null,null,51.80,SPECI LEBZ 040939Z 22020G32KT 5000 RA SCT025 BKN050 11/06 Q0998
